[{"OBJECT_NAME":"STARLINK-5903","OBJECT_ID":"2023-042L","EPOCH":"2026-03-09T08:57:30.921984","MEAN_MOTION":15.0254056,"ECCENTRICITY":0.00012431,"INCLINATION":43.0031,"RA_OF_ASC_NODE":57.7557,"ARG_OF_PERICENTER":268.6847,"MEAN_ANOMALY":91.3853,"EPHEMERIS_TYPE":0,"CLASSIFICATION_TYPE":"U","NORAD_CAT_ID":55996,"ELEMENT_SET_NO":999,"REV_AT_EPOCH":16286,"BSTAR":-7.1438872e-5,"MEAN_MOTION_DOT":-1.169e-5,"MEAN_MOTION_DDOT":0},{"OBJECT_NAME":"COSMOS 2251 DEB","OBJECT_ID":"1993-036HX","EPOCH":"2026-03-09T21:31:03.673056","MEAN_MOTION":15.04193551,"ECCENTRICITY":0.00046843,"INCLINATION":74.0171,"RA_OF_ASC_NODE":332.1487,"ARG_OF_PERICENTER":332.3762,"MEAN_ANOMALY":27.7177,"EPHEMERIS_TYPE":0,"CLASSIFICATION_TYPE":"U","NORAD_CAT_ID":34036,"ELEMENT_SET_NO":999,"REV_AT_EPOCH":89876,"BSTAR":0.0040391987,"MEAN_MOTION_DOT":0.00056541,"MEAN_MOTION_DDOT":0}]
